[{"OBJECT_NAME":"JILIN-1 07","OBJECT_ID":"2018-008E","EPOCH":"2026-03-09T22:24:26.445888","MEAN_MOTION":15.32987507,"ECCENTRICITY":0.00101791,"INCLINATION":97.1876,"RA_OF_ASC_NODE":91.5817,"ARG_OF_PERICENTER":62.7832,"MEAN_ANOMALY":297.4447,"EPHEMERIS_TYPE":0,"CLASSIFICATION_TYPE":"U","NORAD_CAT_ID":43159,"ELEMENT_SET_NO":999,"REV_AT_EPOCH":44978,"BSTAR":0.00036439521,"MEAN_MOTION_DOT":0.00011559,"MEAN_MOTION_DDOT":0},{"OBJECT_NAME":"STARLINK-35802","OBJECT_ID":"2025-247AA","EPOCH":"2026-03-09T14:34:30.306144","MEAN_MOTION":15.30201194,"ECCENTRICITY":0.0001882,"INCLINATION":53.1598,"RA_OF_ASC_NODE":191.636,"ARG_OF_PERICENTER":32.231,"MEAN_ANOMALY":327.8805,"EPHEMERIS_TYPE":0,"CLASSIFICATION_TYPE":"U","NORAD_CAT_ID":66289,"ELEMENT_SET_NO":999,"REV_AT_EPOCH":2102,"BSTAR":0.0011903,"MEAN_MOTION_DOT":0.00035061,"MEAN_MOTION_DDOT":0}]
